CCSDS_OMM_VERS = 2.0
CREATION_DATE  = 
ORIGINATOR     = 

OBJECT_NAME    = STARLINK-35498
OBJECT_ID      = 2025-293Q
CENTER_NAME    = EARTH
REF_FRAME      = TEME
TIME_SYSTEM    = UTC
MEAN_ELEMENT_THEORY = SGP/SGP4

EPOCH          = 2026-01-09T14:00:01.999872
MEAN_MOTION    = 15.52436166
ECCENTRICITY   = .00033277
INCLINATION    = 70.0001
RA_OF_ASC_NODE = 245.1952
ARG_OF_PERICENTER = 265.4629
MEAN_ANOMALY   = 13.2904

EPHEMERIS_TYPE = 0
CLASSIFICATION_TYPE = U
NORAD_CAT_ID   = 67017
ELEMENT_SET_NO = 999
REV_AT_EPOCH   = 476
BSTAR          = .22339391E-2
MEAN_MOTION_DOT = .139286E-2
MEAN_MOTION_DDOT = 0

CCSDS_OMM_VERS = 2.0
CREATION_DATE  = 
ORIGINATOR     = 

OBJECT_NAME    = STARLINK-36106
OBJECT_ID      = 2025-293R
CENTER_NAME    = EARTH
REF_FRAME      = TEME
TIME_SYSTEM    = UTC
MEAN_ELEMENT_THEORY = SGP/SGP4

EPOCH          = 2026-01-09T14:00:01.999872
MEAN_MOTION    = 15.52439256
ECCENTRICITY   = .00033871
INCLINATION    = 70.0001
RA_OF_ASC_NODE = 245.1934
ARG_OF_PERICENTER = 270.1414
MEAN_ANOMALY   = 10.5301

EPHEMERIS_TYPE = 0
CLASSIFICATION_TYPE = U
NORAD_CAT_ID   = 67018
ELEMENT_SET_NO = 999
REV_AT_EPOCH   = 467
BSTAR          = .20469581E-2
MEAN_MOTION_DOT = .127437E-2
MEAN_MOTION_DDOT = 0

CCSDS_OMM_VERS = 2.0
CREATION_DATE  = 
ORIGINATOR     = 

OBJECT_NAME    = STARLINK-35688
OBJECT_ID      = 2025-293S
CENTER_NAME    = EARTH
REF_FRAME      = TEME
TIME_SYSTEM    = UTC
MEAN_ELEMENT_THEORY = SGP/SGP4

EPOCH          = 2026-01-09T14:00:01.999872
MEAN_MOTION    = 15.52515092
ECCENTRICITY   = .00033728
INCLINATION    = 70.0002
RA_OF_ASC_NODE = 245.1918
ARG_OF_PERICENTER = 269.5402
MEAN_ANOMALY   = 13.0142

EPHEMERIS_TYPE = 0
CLASSIFICATION_TYPE = U
NORAD_CAT_ID   = 67019
ELEMENT_SET_NO = 999
REV_AT_EPOCH   = 476
BSTAR          = .64240562E-4
MEAN_MOTION_DOT = .3786E-4
MEAN_MOTION_DDOT = 0

CCSDS_OMM_VERS = 2.0
CREATION_DATE  = 
ORIGINATOR     = 

OBJECT_NAME    = STARLINK-36172
OBJECT_ID      = 2025-293T
CENTER_NAME    = EARTH
REF_FRAME      = TEME
TIME_SYSTEM    = UTC
MEAN_ELEMENT_THEORY = SGP/SGP4

EPOCH          = 2026-01-09T15:51:48.759264
MEAN_MOTION    = 15.53772233
ECCENTRICITY   = .0007961
INCLINATION    = 70.0001
RA_OF_ASC_NODE = 244.9717
ARG_OF_PERICENTER = 271.2357
MEAN_ANOMALY   = 88.7919

EPHEMERIS_TYPE = 0
CLASSIFICATION_TYPE = U
NORAD_CAT_ID   = 67020
ELEMENT_SET_NO = 999
REV_AT_EPOCH   = 599
BSTAR          = .24691748E-2
MEAN_MOTION_DOT = .162184E-2
MEAN_MOTION_DDOT = 0

CCSDS_OMM_VERS = 2.0
CREATION_DATE  = 
ORIGINATOR     = 

OBJECT_NAME    = STARLINK-36184
OBJECT_ID      = 2025-293U
CENTER_NAME    = EARTH
REF_FRAME      = TEME
TIME_SYSTEM    = UTC
MEAN_ELEMENT_THEORY = SGP/SGP4

EPOCH          = 2026-01-09T14:00:01.999872
MEAN_MOTION    = 15.52438096
ECCENTRICITY   = .00032217
INCLINATION    = 70.0001
RA_OF_ASC_NODE = 245.1863
ARG_OF_PERICENTER = 269.2705
MEAN_ANOMALY   = 17.1500

EPHEMERIS_TYPE = 0
CLASSIFICATION_TYPE = U
NORAD_CAT_ID   = 67021
ELEMENT_SET_NO = 999
REV_AT_EPOCH   = 467
BSTAR          = .20931525E-2
MEAN_MOTION_DOT = .130357E-2
MEAN_MOTION_DDOT = 0

CCSDS_OMM_VERS = 2.0
CREATION_DATE  = 
ORIGINATOR     = 

OBJECT_NAME    = STARLINK-36209
OBJECT_ID      = 2025-293V
CENTER_NAME    = EARTH
REF_FRAME      = TEME
TIME_SYSTEM    = UTC
MEAN_ELEMENT_THEORY = SGP/SGP4

EPOCH          = 2026-01-09T15:50:49.882848
MEAN_MOTION    = 15.53762071
ECCENTRICITY   = .00080212
INCLINATION    = 69.9997
RA_OF_ASC_NODE = 244.9716
ARG_OF_PERICENTER = 287.2065
MEAN_ANOMALY   = 72.8244

EPHEMERIS_TYPE = 0
CLASSIFICATION_TYPE = U
NORAD_CAT_ID   = 67022
ELEMENT_SET_NO = 999
REV_AT_EPOCH   = 600
BSTAR          = .22894276E-2
MEAN_MOTION_DOT = .150085E-2
MEAN_MOTION_DDOT = 0

CCSDS_OMM_VERS = 2.0
CREATION_DATE  = 
ORIGINATOR     = 

OBJECT_NAME    = STARLINK-36191
OBJECT_ID      = 2025-293W
CENTER_NAME    = EARTH
REF_FRAME      = TEME
TIME_SYSTEM    = UTC
MEAN_ELEMENT_THEORY = SGP/SGP4

EPOCH          = 2026-01-09T14:00:01.999872
MEAN_MOTION    = 15.52442608
ECCENTRICITY   = .00033665
INCLINATION    = 70.0002
RA_OF_ASC_NODE = 245.1820
ARG_OF_PERICENTER = 269.5056
MEAN_ANOMALY   = 20.7419

EPHEMERIS_TYPE = 0
CLASSIFICATION_TYPE = U
NORAD_CAT_ID   = 67023
ELEMENT_SET_NO = 999
REV_AT_EPOCH   = 456
BSTAR          = .20083002E-2
MEAN_MOTION_DOT = .125004E-2
MEAN_MOTION_DDOT = 0

CCSDS_OMM_VERS = 2.0
CREATION_DATE  = 
ORIGINATOR     = 

OBJECT_NAME    = STARLINK-36192
OBJECT_ID      = 2025-293X
CENTER_NAME    = EARTH
REF_FRAME      = TEME
TIME_SYSTEM    = UTC
MEAN_ELEMENT_THEORY = SGP/SGP4

EPOCH          = 2026-01-09T14:17:32.857152
MEAN_MOTION    = 15.52533882
ECCENTRICITY   = .00037249
INCLINATION    = 69.9997
RA_OF_ASC_NODE = 245.1474
ARG_OF_PERICENTER = 278.3279
MEAN_ANOMALY   = 81.7486

EPHEMERIS_TYPE = 0
CLASSIFICATION_TYPE = U
NORAD_CAT_ID   = 67024
ELEMENT_SET_NO = 999
REV_AT_EPOCH   = 599
BSTAR          = .10105417E-2
MEAN_MOTION_DOT = .62529E-3
MEAN_MOTION_DDOT = 0

CCSDS_OMM_VERS = 2.0
CREATION_DATE  = 
ORIGINATOR     = 

OBJECT_NAME    = STARLINK-36178
OBJECT_ID      = 2025-293Y
CENTER_NAME    = EARTH
REF_FRAME      = TEME
TIME_SYSTEM    = UTC
MEAN_ELEMENT_THEORY = SGP/SGP4

EPOCH          = 2026-01-09T15:49:20.563392
MEAN_MOTION    = 15.53569084
ECCENTRICITY   = .00048166
INCLINATION    = 70.0030
RA_OF_ASC_NODE = 244.9685
ARG_OF_PERICENTER = 257.4643
MEAN_ANOMALY   = 102.6006

EPHEMERIS_TYPE = 0
CLASSIFICATION_TYPE = U
NORAD_CAT_ID   = 67025
ELEMENT_SET_NO = 999
REV_AT_EPOCH   = 600
BSTAR          = .21734686E-2
MEAN_MOTION_DOT = .141218E-2
MEAN_MOTION_DDOT = 0

CCSDS_OMM_VERS = 2.0
CREATION_DATE  = 
ORIGINATOR     = 

OBJECT_NAME    = STARLINK-36176
OBJECT_ID      = 2025-293Z
CENTER_NAME    = EARTH
REF_FRAME      = TEME
TIME_SYSTEM    = UTC
MEAN_ELEMENT_THEORY = SGP/SGP4

EPOCH          = 2026-01-09T14:00:01.999872
MEAN_MOTION    = 15.52435696
ECCENTRICITY   = .00033485
INCLINATION    = 70.0000
RA_OF_ASC_NODE = 245.1726
ARG_OF_PERICENTER = 268.4696
MEAN_ANOMALY   = 29.4535

EPHEMERIS_TYPE = 0
CLASSIFICATION_TYPE = U
NORAD_CAT_ID   = 67026
ELEMENT_SET_NO = 999
REV_AT_EPOCH   = 468
BSTAR          = .20896355E-2
MEAN_MOTION_DOT = .130125E-2
MEAN_MOTION_DDOT = 0

CCSDS_OMM_VERS = 2.0
CREATION_DATE  = 
ORIGINATOR     = 

OBJECT_NAME    = STARLINK-36171
OBJECT_ID      = 2025-293AA
CENTER_NAME    = EARTH
REF_FRAME      = TEME
TIME_SYSTEM    = UTC
MEAN_ELEMENT_THEORY = SGP/SGP4

EPOCH          = 2026-01-09T01:54:19.179360
MEAN_MOTION    = 15.52533337
ECCENTRICITY   = .00032619
INCLINATION    = 69.9998
RA_OF_ASC_NODE = 246.5570
ARG_OF_PERICENTER = 264.4961
MEAN_ANOMALY   = 95.5854

EPHEMERIS_TYPE = 0
CLASSIFICATION_TYPE = U
NORAD_CAT_ID   = 67027
ELEMENT_SET_NO = 999
REV_AT_EPOCH   = 591
BSTAR          = .11200595E-2
MEAN_MOTION_DOT = .69379E-3
MEAN_MOTION_DDOT = 0

CCSDS_OMM_VERS = 2.0
CREATION_DATE  = 
ORIGINATOR     = 

OBJECT_NAME    = STARLINK-36132
OBJECT_ID      = 2025-293AB
CENTER_NAME    = EARTH
REF_FRAME      = TEME
TIME_SYSTEM    = UTC
MEAN_ELEMENT_THEORY = SGP/SGP4

EPOCH          = 2026-01-09T04:58:23.973888
MEAN_MOTION    = 15.52544935
ECCENTRICITY   = .00032206
INCLINATION    = 70.0002
RA_OF_ASC_NODE = 246.1994
ARG_OF_PERICENTER = 273.3655
MEAN_ANOMALY   = 86.7164

EPHEMERIS_TYPE = 0
CLASSIFICATION_TYPE = U
NORAD_CAT_ID   = 67028
ELEMENT_SET_NO = 999
REV_AT_EPOCH   = 593
BSTAR          = .19813392E-2
MEAN_MOTION_DOT = .123756E-2
MEAN_MOTION_DDOT = 0

