STARLINK-35498          
1 67017U 25293Q   26009.58335648  .00139286  00000+0  22339-2 0  9990
2 67017  70.0001 245.1952 0003327 265.4629  13.2904 15.52436166  4763
STARLINK-36106          
1 67018U 25293R   26009.58335648  .00127437  00000+0  20470-2 0  9990
2 67018  70.0001 245.1934 0003387 270.1414  10.5301 15.52439256  4679
STARLINK-35688          
1 67019U 25293S   26009.58335648  .00003786  00000+0  64241-4 0  9997
2 67019  70.0002 245.1918 0003372 269.5402  13.0142 15.52515092  4760
STARLINK-36172          
1 67020U 25293T   26009.66098101  .00162184  00000+0  24692-2 0  9990
2 67020  70.0001 244.9717 0007961 271.2357  88.7919 15.53772233  5992
STARLINK-36184          
1 67021U 25293U   26009.58335648  .00130357  00000+0  20932-2 0  9992
2 67021  70.0001 245.1863 0003221 269.2705  17.1500 15.52438096  4678
STARLINK-36209          
1 67022U 25293V   26009.66029957  .00150085  00000+0  22894-2 0  9994
2 67022  69.9997 244.9716 0008021 287.2065  72.8244 15.53762071  6002
STARLINK-36191          
1 67023U 25293W   26009.58335648  .00125004  00000+0  20083-2 0  9994
2 67023  70.0002 245.1820 0003366 269.5056  20.7419 15.52442608  4567
STARLINK-36192          
1 67024U 25293X   26009.59551918  .00062529  00000+0  10105-2 0  9992
2 67024  69.9997 245.1474 0003724 278.3279  81.7486 15.52533882  5990
STARLINK-36178          
1 67025U 25293Y   26009.65926578  .00141218  00000+0  21735-2 0  9992
2 67025  70.0030 244.9685 0004816 257.4643 102.6006 15.53569084  6007
STARLINK-36176          
1 67026U 25293Z   26009.58335648  .00130125  00000+0  20896-2 0  9999
2 67026  70.0000 245.1726 0003348 268.4696  29.4535 15.52435696  4688
STARLINK-36171          
1 67027U 25293AA  26009.07938865  .00069379  00000+0  11201-2 0  9996
2 67027  69.9998 246.5570 0003261 264.4961  95.5854 15.52533337  5915
STARLINK-36132          
1 67028U 25293AB  26009.20722192  .00123756  00000+0  19813-2 0  9993
2 67028  70.0002 246.1994 0003220 273.3655  86.7164 15.52544935  5939
